{
"type": "FeatureCollection",
"name": "rainfall_stations",
"crs": { "type": "name", "properties": { "name": "urn:ogc:def:crs:OGC:1.3:CRS84" } },
"features": [
{ "type": "Feature", "properties": { "Station": "Almora_1", "Agency": "Uttarakhand", "State": "Uttarakhand", "District": "Almora", "Latitude": 29.59575833, "Longitude": 79.65063889 }, "geometry": { "type": "Point", "coordinates": [ 79.65063889, 29.59575833 ] } },
{ "type": "Feature", "properties": { "Station": "Assan_1", "Agency": "Uttarakhand", "State": "Uttarakhand", "District": "Dehradun", "Latitude": 30.43582222, "Longitude": 77.66580833 }, "geometry": { "type": "Point", "coordinates": [ 77.66580833, 30.43582222 ] } },
{ "type": "Feature", "properties": { "Station": "Badrinath_1", "Agency": "Uttarakhand", "State": "Uttarakhand", "District": "Chamoli", "Latitude": 30.74513889, "Longitude": 79.49436111 }, "geometry": { "type": "Point", "coordinates": [ 79.49436111, 30.74513889 ] } },
{ "type": "Feature", "properties": { "Station": "Bahadarabad", "Agency": "Uttarakhand", "State": "Uttarakhand", "District": "Haridwar", "Latitude": 29.92380278, "Longitude": 78.03671389 }, "geometry": { "type": "Point", "coordinates": [ 78.03671389, 29.92380278 ] } },
{ "type": "Feature", "properties": { "Station": "Baijnath (Gomti)", "Agency": "Uttarakhand", "State": "Uttarakhand", "District": "Bageshwar", "Latitude": 29.90822222, "Longitude": 79.61769444 }, "geometry": { "type": "Point", "coordinates": [ 79.61769444, 29.90822222 ] } },
{ "type": "Feature", "properties": { "Station": "Basukedar", "Agency": "Uttarakhand", "State": "Uttarakhand", "District": "Rudraprayag", "Latitude": 30.43919444, "Longitude": 79.05633333 }, "geometry": { "type": "Point", "coordinates": [ 79.05633333, 30.43919444 ] } },
{ "type": "Feature", "properties": { "Station": "Bhagwanpur_1", "Agency": "Uttarakhand", "State": "Uttarakhand", "District": "Haridwar", "Latitude": 29.93567778, "Longitude": 77.80170611 }, "geometry": { "type": "Point", "coordinates": [ 77.80170611, 29.93567778 ] } },
{ "type": "Feature", "properties": { "Station": "Chakrata", "Agency": "Uttarakhand", "State": "Uttarakhand", "District": "Dehradun", "Latitude": 30.76115556, "Longitude": 77.86502778000001 }, "geometry": { "type": "Point", "coordinates": [ 77.86502778, 30.76115556 ] } },
{ "type": "Feature", "properties": { "Station": "Champawat_1", "Agency": "Uttarakhand", "State": "Uttarakhand", "District": "Champawat", "Latitude": 29.33341667, "Longitude": 80.08469444000001 }, "geometry": { "type": "Point", "coordinates": [ 80.08469444, 29.33341667 ] } },
{ "type": "Feature", "properties": { "Station": "Chandranagar_1", "Agency": "Uttarakhand", "State": "Uttarakhand", "District": "Rudraprayag", "Latitude": 30.41541667, "Longitude": 79.06208333 }, "geometry": { "type": "Point", "coordinates": [ 79.06208333, 30.41541667 ] } },
{ "type": "Feature", "properties": { "Station": "Dakpathar", "Agency": "Uttarakhand", "State": "Uttarakhand", "District": "Dehradun", "Latitude": 30.49866667, "Longitude": 77.79744444000001 }, "geometry": { "type": "Point", "coordinates": [ 77.79744444, 30.49866667 ] } },
{ "type": "Feature", "properties": { "Station": "Danda_1", "Agency": "Uttarakhand", "State": "Uttarakhand", "District": "Champawat", "Latitude": 29.15927778, "Longitude": 80.10852778 }, "geometry": { "type": "Point", "coordinates": [ 80.10852778, 29.15927778 ] } },
{ "type": "Feature", "properties": { "Station": "Dharchula_1", "Agency": "Uttarakhand", "State": "Uttarakhand", "District": "Pithoragarh", "Latitude": 29.84825, "Longitude": 80.54047222 }, "geometry": { "type": "Point", "coordinates": [ 80.54047222, 29.84825 ] } },
{ "type": "Feature", "properties": { "Station": "Doiwala (Bhogpur)", "Agency": "Uttarakhand", "State": "Uttarakhand", "District": "Dehradun", "Latitude": 30.22270833, "Longitude": 78.23418611 }, "geometry": { "type": "Point", "coordinates": [ 78.23418611, 30.22270833 ] } },
{ "type": "Feature", "properties": { "Station": "Dugadda (Khoh)", "Agency": "Uttarakhand", "State": "Uttarakhand", "District": "PAURI GARHWAL", "Latitude": 29.75108333, "Longitude": 78.52341667 }, "geometry": { "type": "Point", "coordinates": [ 78.52341667, 29.75108333 ] } },
{ "type": "Feature", "properties": { "Station": "Gadarpur", "Agency": "Uttarakhand", "State": "Uttarakhand", "District": "UDHAM SINGH NAGAR", "Latitude": 29.04324167, "Longitude": 79.24461944 }, "geometry": { "type": "Point", "coordinates": [ 79.24461944, 29.04324167 ] } },
{ "type": "Feature", "properties": { "Station": "Gairsain (Ramganga)", "Agency": "Uttarakhand", "State": "Uttarakhand", "District": "Chamoli", "Latitude": 30.045, "Longitude": 79.2855 }, "geometry": { "type": "Point", "coordinates": [ 79.2855, 30.045 ] } },
{ "type": "Feature", "properties": { "Station": "Gola_1", "Agency": "Uttarakhand", "State": "Uttarakhand", "District": "Nainital", "Latitude": 29.27136111, "Longitude": 79.54743333 }, "geometry": { "type": "Point", "coordinates": [ 79.54743333, 29.27136111 ] } },
{ "type": "Feature", "properties": { "Station": "Guptkashi_1", "Agency": "Uttarakhand", "State": "Uttarakhand", "District": "Rudraprayag", "Latitude": 30.52863889, "Longitude": 79.08508333 }, "geometry": { "type": "Point", "coordinates": [ 79.08508333, 30.52863889 ] } },
{ "type": "Feature", "properties": { "Station": "Haldwani_1", "Agency": "Uttarakhand", "State": "Uttarakhand", "District": "Nainital", "Latitude": 29.214725, "Longitude": 79.52400278 }, "geometry": { "type": "Point", "coordinates": [ 79.52400278, 29.214725 ] } },
{ "type": "Feature", "properties": { "Station": "Haripura_2", "Agency": "Uttarakhand", "State": "Uttarakhand", "District": "UDHAM SINGH NAGAR", "Latitude": 29.13151944, "Longitude": 79.25965556 }, "geometry": { "type": "Point", "coordinates": [ 79.25965556, 29.13151944 ] } },
{ "type": "Feature", "properties": { "Station": "Jhala_1", "Agency": "Uttarakhand", "State": "Uttarakhand", "District": "Uttarkashi", "Latitude": 31.01533333, "Longitude": 78.71222222 }, "geometry": { "type": "Point", "coordinates": [ 78.71222222, 31.01533333 ] } },
{ "type": "Feature", "properties": { "Station": "Joshiyara", "Agency": "Uttarakhand", "State": "Uttarakhand", "District": "Uttarkashi", "Latitude": 30.73122222, "Longitude": 78.42733333 }, "geometry": { "type": "Point", "coordinates": [ 78.42733333, 30.73122222 ] } },
{ "type": "Feature", "properties": { "Station": "Kapkot (Saryu)", "Agency": "Uttarakhand", "State": "Uttarakhand", "District": "Bageshwar", "Latitude": 29.94516667, "Longitude": 79.9025 }, "geometry": { "type": "Point", "coordinates": [ 79.9025, 29.94516667 ] } },
{ "type": "Feature", "properties": { "Station": "Kempty", "Agency": "Uttarakhand", "State": "Uttarakhand", "District": "Tehri Garhwal", "Latitude": 30.49075, "Longitude": 78.04738889 }, "geometry": { "type": "Point", "coordinates": [ 78.04738889, 30.49075 ] } },
{ "type": "Feature", "properties": { "Station": "Khanpur_5", "Agency": "Uttarakhand", "State": "Uttarakhand", "District": "Haridwar", "Latitude": 29.641375, "Longitude": 78.00678611 }, "geometry": { "type": "Point", "coordinates": [ 78.00678611, 29.641375 ] } },
{ "type": "Feature", "properties": { "Station": "Khati_1", "Agency": "Uttarakhand", "State": "Uttarakhand", "District": "Bageshwar", "Latitude": 30.11019722, "Longitude": 79.94055833 }, "geometry": { "type": "Point", "coordinates": [ 79.94055833, 30.11019722 ] } },
{ "type": "Feature", "properties": { "Station": "Kosi_1", "Agency": "Uttarakhand", "State": "Uttarakhand", "District": "Almora", "Latitude": 29.6191, "Longitude": 79.62060833 }, "geometry": { "type": "Point", "coordinates": [ 79.62060833, 29.6191 ] } },
{ "type": "Feature", "properties": { "Station": "Lamgara", "Agency": "Uttarakhand", "State": "Uttarakhand", "District": "Almora", "Latitude": 29.53866667, "Longitude": 79.74994444 }, "geometry": { "type": "Point", "coordinates": [ 79.74994444, 29.53866667 ] } },
{ "type": "Feature", "properties": { "Station": "Manglaur_1", "Agency": "Uttarakhand", "State": "Uttarakhand", "District": "Haridwar", "Latitude": 29.78567778, "Longitude": 77.86368889000001 }, "geometry": { "type": "Point", "coordinates": [ 77.86368889, 29.78567778 ] } },
{ "type": "Feature", "properties": { "Station": "Mukteshwar_1", "Agency": "Uttarakhand", "State": "Uttarakhand", "District": "Nainital", "Latitude": 29.47413889, "Longitude": 79.65119444 }, "geometry": { "type": "Point", "coordinates": [ 79.65119444, 29.47413889 ] } },
{ "type": "Feature", "properties": { "Station": "Nachni", "Agency": "Uttarakhand", "State": "Uttarakhand", "District": "Pithoragarh", "Latitude": 29.90594444, "Longitude": 80.16097222 }, "geometry": { "type": "Point", "coordinates": [ 80.16097222, 29.90594444 ] } },
{ "type": "Feature", "properties": { "Station": "Nainital_1", "Agency": "Uttarakhand", "State": "Uttarakhand", "District": "Nainital", "Latitude": 29.39530278, "Longitude": 79.46232778 }, "geometry": { "type": "Point", "coordinates": [ 79.46232778, 29.39530278 ] } },
{ "type": "Feature", "properties": { "Station": "Nandprayag (Nandakini)", "Agency": "Uttarakhand", "State": "Uttarakhand", "District": "Chamoli", "Latitude": 30.33122222, "Longitude": 79.31063889000001 }, "geometry": { "type": "Point", "coordinates": [ 79.31063889, 30.33122222 ] } },
{ "type": "Feature", "properties": { "Station": "Pithoragarh", "Agency": "Uttarakhand", "State": "Uttarakhand", "District": "Pithoragarh", "Latitude": 29.57938889, "Longitude": 80.21886111000001 }, "geometry": { "type": "Point", "coordinates": [ 80.21886111, 29.57938889 ] } },
{ "type": "Feature", "properties": { "Station": "Purola_1", "Agency": "Uttarakhand", "State": "Uttarakhand", "District": "Uttarkashi", "Latitude": 30.91291667, "Longitude": 78.10388889 }, "geometry": { "type": "Point", "coordinates": [ 78.10388889, 30.91291667 ] } },
{ "type": "Feature", "properties": { "Station": "Rithakhal", "Agency": "Uttarakhand", "State": "Uttarakhand", "District": "Champawat", "Latitude": 29.44911111, "Longitude": 79.882 }, "geometry": { "type": "Point", "coordinates": [ 79.882, 29.44911111 ] } },
{ "type": "Feature", "properties": { "Station": "Roorkee_2", "Agency": "Uttarakhand", "State": "Uttarakhand", "District": "Haridwar", "Latitude": 29.86771944, "Longitude": 77.88415556 }, "geometry": { "type": "Point", "coordinates": [ 77.88415556, 29.86771944 ] } },
{ "type": "Feature", "properties": { "Station": "Rudrapur_2", "Agency": "Uttarakhand", "State": "Uttarakhand", "District": "UDHAM SINGH NAGAR", "Latitude": 28.97373611, "Longitude": 79.39988611 }, "geometry": { "type": "Point", "coordinates": [ 79.39988611, 28.97373611 ] } },
{ "type": "Feature", "properties": { "Station": "Sitarganj_1", "Agency": "Uttarakhand", "State": "Uttarakhand", "District": "UDHAM SINGH NAGAR", "Latitude": 28.92971389, "Longitude": 79.703 }, "geometry": { "type": "Point", "coordinates": [ 79.703, 28.92971389 ] } },
{ "type": "Feature", "properties": { "Station": "Sonprayag_1", "Agency": "Uttarakhand", "State": "Uttarakhand", "District": "Rudraprayag", "Latitude": 30.63547222, "Longitude": 78.99941667 }, "geometry": { "type": "Point", "coordinates": [ 78.99941667, 30.63547222 ] } },
{ "type": "Feature", "properties": { "Station": "Srinagar_2", "Agency": "Uttarakhand", "State": "Uttarakhand", "District": "PAURI GARHWAL", "Latitude": 30.23581944, "Longitude": 78.81720278 }, "geometry": { "type": "Point", "coordinates": [ 78.81720278, 30.23581944 ] } },
{ "type": "Feature", "properties": { "Station": "Tanakpur_1", "Agency": "Uttarakhand", "State": "Uttarakhand", "District": "Champawat", "Latitude": 29.07222222, "Longitude": 80.1175 }, "geometry": { "type": "Point", "coordinates": [ 80.1175, 29.07222222 ] } },
{ "type": "Feature", "properties": { "Station": "Tumaria", "Agency": "Uttarakhand", "State": "Uttarakhand", "District": "UDHAM SINGH NAGAR", "Latitude": 29.30704722, "Longitude": 78.93133056000001 }, "geometry": { "type": "Point", "coordinates": [ 78.93133056, 29.30704722 ] } },
{ "type": "Feature", "properties": { "Station": "Virbhadra", "Agency": "Uttarakhand", "State": "Uttarakhand", "District": "PAURI GARHWAL", "Latitude": 30.07444444, "Longitude": 78.29047222 }, "geometry": { "type": "Point", "coordinates": [ 78.29047222, 30.07444444 ] } },
{ "type": "Feature", "properties": { "Station": "Yamkeshwar", "Agency": "Uttarakhand", "State": "Uttarakhand", "District": "PAURI GARHWAL", "Latitude": 29.96130556, "Longitude": 78.44086111 }, "geometry": { "type": "Point", "coordinates": [ 78.44086111, 29.96130556 ] } },
{ "type": "Feature", "properties": { "Station": "Yamuna Colony", "Agency": "Uttarakhand", "State": "Uttarakhand", "District": "Dehradun", "Latitude": 30.33775278, "Longitude": 78.03311667 }, "geometry": { "type": "Point", "coordinates": [ 78.03311667, 30.33775278 ] } }
]
}
