{
"type": "FeatureCollection",
"name": "river_stations",
"crs": { "type": "name", "properties": { "name": "urn:ogc:def:crs:OGC:1.3:CRS84" } },
"features": [
{ "type": "Feature", "properties": { "Station": "Karnaprayag (P)", "Agency": "CWC", "State": "Uttarakhand", "District": "Chamoli", "Latitude": 30.2525, "Longitude": 79.22138889 }, "geometry": { "type": "Point", "coordinates": [ 79.22138889, 30.2525 ] } },
{ "type": "Feature", "properties": { "Station": "Kheri_5", "Agency": "CWC", "State": "Uttarakhand", "District": "Almora", "Latitude": 29.6057, "Longitude": 79.0927 }, "geometry": { "type": "Point", "coordinates": [ 79.0927, 29.6057 ] } },
{ "type": "Feature", "properties": { "Station": "Koteshwar", "Agency": "CWC", "State": "Uttarakhand", "District": "Tehri Garhwal", "Latitude": 30.26527778, "Longitude": 78.50333333 }, "geometry": { "type": "Point", "coordinates": [ 78.50333333, 30.26527778 ] } },
{ "type": "Feature", "properties": { "Station": "Lambagarh", "Agency": "CWC", "State": "Uttarakhand", "District": "Chamoli", "Latitude": 30.66472222, "Longitude": 79.5175 }, "geometry": { "type": "Point", "coordinates": [ 79.5175, 30.66472222 ] } },
{ "type": "Feature", "properties": { "Station": "Marchula_1", "Agency": "CWC", "State": "Uttarakhand", "District": "Nainital", "Latitude": 29.60611111, "Longitude": 79.09277778000001 }, "geometry": { "type": "Point", "coordinates": [ 79.09277778, 29.60611111 ] } },
{ "type": "Feature", "properties": { "Station": "Rudraprayag_3", "Agency": "CWC", "State": "Uttarakhand", "District": "PAURI GARHWAL", "Latitude": 30.276288, "Longitude": 78.964854 }, "geometry": { "type": "Point", "coordinates": [ 78.964854, 30.276288 ] } },
{ "type": "Feature", "properties": { "Station": "Tekhla", "Agency": "CWC", "State": "Uttarakhand", "District": "Uttarkashi", "Latitude": 30.74805556, "Longitude": 78.45333333000001 }, "geometry": { "type": "Point", "coordinates": [ 78.45333333, 30.74805556 ] } }
]
}
